

[
   {
      "links":{
         "self":"http://www.neowsapp.com/rest/v1/neo/2001036?api_key=90GarKwRkqcLpOMJnSLkbvOa9LghMB0xcMJw1CIU"
      },
      "id":"2001036",
      "neo_reference_id":"2001036",
      "name":"1036 Ganymed (A924 UB)",
      "name_limited":"Ganymed",
      "designation":"1036",
      "nasa_jpl_url":"http://ssd.jpl.nasa.gov/sbdb.cgi?sstr=2001036",
      "absolute_magnitude_h":9.25,
      "estimated_diameter":{
         "kilometers":{
            "estimated_diameter_min":37.5452479361,
            "estimated_diameter_max":83.9537266171
         },
         "meters":{
            "estimated_diameter_min":37545.2479360728,
            "estimated_diameter_max":83953.7266171425
         },
         "miles":{
            "estimated_diameter_min":23.3295282553,
            "estimated_diameter_max":52.1664110618
         },
         "feet":{
            "estimated_diameter_min":123179.9512385851,
            "estimated_diameter_max":275438.7444345857
         }
      },
      "is_potentially_hazardous_asteroid":false,
      "close_approach_data":{
         "close_approach_date":"1910-02-25",
         "close_approach_date_full":"1910-Feb-25 08:36",
         "epoch_date_close_approach":-1888673040000,
         "relative_velocity":{
            "kilometers_per_second":"6.3038665012",
            "kilometers_per_hour":"22693.919404211",
            "miles_per_hour":"14101.1189764666"
         },
         "miss_distance":{
            "astronomical":"1.9562568052",
            "lunar":"760.9838972228",
            "kilometers":"292651851.230924924",
            "miles":"181845428.0703509912"
         },
         "orbiting_body":"Juptr"
      },
      "orbital_data":{
         "orbit_id":"925",
         "orbit_determination_date":"2021-05-21 05:50:06",
         "first_observation_date":"1924-10-23",
         "last_observation_date":"2021-05-20",
         "data_arc_in_days":35273,
         "observations_used":7047,
         "orbit_uncertainty":"0",
         "minimum_orbit_intersection":".344347",
         "jupiter_tisserand_invariant":"3.034",
         "epoch_osculation":"2459396.5",
         "eccentricity":".533129232790272",
         "semi_major_axis":"2.665548235434295",
         "inclination":"26.67564320070546",
         "ascending_node_longitude":"215.5328165431079",
         "orbital_period":"1589.564831738242",
         "perihelion_distance":"1.244466549711746",
         "perihelion_argument":"132.3995837190134",
         "aphelion_distance":"4.086629921156844",
         "perihelion_time":"2458979.279223720400",
         "mean_anomaly":"94.4909427169498",
         "mean_motion":".2264770790168577",
         "equinox":"J2000",
         "orbit_class":{
            "orbit_class_type":"AMO",
            "orbit_class_description":"Near-Earth asteroid orbits similar to that of 1221 Amor",
            "orbit_class_range":"1.017 AU < q (perihelion) < 1.3 AU"
         }
      },
      "is_sentry_object":false
   },
   {
      "links":{
         "self":"http://www.neowsapp.com/rest/v1/neo/2001221?api_key=90GarKwRkqcLpOMJnSLkbvOa9LghMB0xcMJw1CIU"
      },
      "id":"2001221",
      "neo_reference_id":"2001221",
      "name":"1221 Amor (1932 EA1)",
      "name_limited":"Amor",
      "designation":"1221",
      "nasa_jpl_url":"http://ssd.jpl.nasa.gov/sbdb.cgi?sstr=2001221",
      "absolute_magnitude_h":17.39,
      "estimated_diameter":{
         "kilometers":{
            "estimated_diameter_min":0.8842090927,
            "estimated_diameter_max":1.9771516375
         },
         "meters":{
            "estimated_diameter_min":884.2090926555,
            "estimated_diameter_max":1977.151637501
         },
         "miles":{
            "estimated_diameter_min":0.5494218881,
            "estimated_diameter_max":1.2285446901
         },
         "feet":{
            "estimated_diameter_min":2900.9485595478,
            "estimated_diameter_max":6486.7181783789
         }
      },
      "is_potentially_hazardous_asteroid":false,
      "close_approach_data":{
         "close_approach_date":"1900-03-08",
         "close_approach_date_full":"1900-Mar-08 23:35",
         "epoch_date_close_approach":-2203201500000,
         "relative_velocity":{
            "kilometers_per_second":"13.2693711877",
            "kilometers_per_hour":"47769.7362755789",
            "miles_per_hour":"29682.2564096784"
         },
         "miss_distance":{
            "astronomical":"0.2850485492",
            "lunar":"110.8838856388",
            "kilometers":"42642655.806910204",
            "miles":"26496917.6400166552"
         },
         "orbiting_body":"Earth"
      },
      "orbital_data":{
         "orbit_id":"105",
         "orbit_determination_date":"2021-04-12 12:09:47",
         "first_observation_date":"1932-03-12",
         "last_observation_date":"2020-09-14",
         "data_arc_in_days":32328,
         "observations_used":552,
         "orbit_uncertainty":"0",
         "minimum_orbit_intersection":".106955",
         "jupiter_tisserand_invariant":"3.782",
         "epoch_osculation":"2459396.5",
         "eccentricity":".4357329630719231",
         "semi_major_axis":"1.918758590510807",
         "inclination":"11.8829206674003",
         "ascending_node_longitude":"171.3185699966586",
         "orbital_period":"970.7981335533411",
         "perihelion_distance":"1.082692224447826",
         "perihelion_argument":"26.6551859253077",
         "aphelion_distance":"2.754824956573788",
         "perihelion_time":"2459867.429612184538",
         "mean_anomaly":"185.3656918705658",
         "mean_motion":".3708288958924122",
         "equinox":"J2000",
         "orbit_class":{
            "orbit_class_type":"AMO",
            "orbit_class_description":"Near-Earth asteroid orbits similar to that of 1221 Amor",
            "orbit_class_range":"1.017 AU < q (perihelion) < 1.3 AU"
         }
      },
      "is_sentry_object":false
   },
   {
      "links":{
         "self":"http://www.neowsapp.com/rest/v1/neo/2001566?api_key=90GarKwRkqcLpOMJnSLkbvOa9LghMB0xcMJw1CIU"
      },
      "id":"2001566",
      "neo_reference_id":"2001566",
      "name":"1566 Icarus (1949 MA)",
      "name_limited":"Icarus",
      "designation":"1566",
      "nasa_jpl_url":"http://ssd.jpl.nasa.gov/sbdb.cgi?sstr=2001566",
      "absolute_magnitude_h":16.35,
      "estimated_diameter":{
         "kilometers":{
            "estimated_diameter_min":1.4274305148,
            "estimated_diameter_max":3.1918316641
         },
         "meters":{
            "estimated_diameter_min":1427.4305147521,
            "estimated_diameter_max":3191.8316641433
         },
         "miles":{
            "estimated_diameter_min":0.8869639264,
            "estimated_diameter_max":1.983311633
         },
         "feet":{
            "estimated_diameter_min":4683.1711300194,
            "estimated_diameter_max":10471.8889969878
         }
      },
      "is_potentially_hazardous_asteroid":true,
      "close_approach_data":{
         "close_approach_date":"1902-06-11",
         "close_approach_date_full":"1902-Jun-11 20:20",
         "epoch_date_close_approach":-2131933200000,
         "relative_velocity":{
            "kilometers_per_second":"27.0081171191",
            "kilometers_per_hour":"97229.2216286466",
            "miles_per_hour":"60414.4571836443"
         },
         "miss_distance":{
            "astronomical":"0.0844821708",
            "lunar":"32.8635644412",
            "kilometers":"12638352.804656196",
            "miles":"7853108.2793436648"
         },
         "orbiting_body":"Earth"
      },
      "orbital_data":{
         "orbit_id":"126",
         "orbit_determination_date":"2021-08-12 06:00:59",
         "first_observation_date":"1949-07-01",
         "last_observation_date":"2021-08-11",
         "data_arc_in_days":26339,
         "observations_used":1078,
         "orbit_uncertainty":"0",
         "minimum_orbit_intersection":".0340552",
         "jupiter_tisserand_invariant":"5.298",
         "epoch_osculation":"2459396.5",
         "eccentricity":".8270025770484959",
         "semi_major_axis":"1.078113048682535",
         "inclination":"22.81198494640687",
         "ascending_node_longitude":"87.98055047960553",
         "orbital_period":"408.8790703816576",
         "perihelion_distance":".1865107790724681",
         "perihelion_argument":"31.41889965374378",
         "aphelion_distance":"1.969715318292603",
         "perihelion_time":"2459600.110497151425",
         "mean_anomaly":"180.7299314535884",
         "mean_motion":".8804559246917855",
         "equinox":"J2000",
         "orbit_class":{
            "orbit_class_type":"APO",
            "orbit_class_description":"Near-Earth asteroid orbits which cross the Earth\u2019s orbit similar to that of 1862 Apollo",
            "orbit_class_range":"a (semi-major axis) > 1.0 AU; q (perihelion) < 1.017 AU"
         }
      },
      "is_sentry_object":false
   }
]